{
  "type": "FeatureCollection",
  "features": [
    {
      "type": "Feature",
      "geometry": {
        "type": "Point",
        "coordinates": [
          -67.42301,
          -9.903664
        ]
      },
      "properties": {
        "row": 318,
        "col": 735,
        "kind": "mound",
        "amplitude_m": 15.28,
        "diameter_m": 169.9,
        "regularity": 1.0,
        "score": 17.573
      }
    },
    {
      "type": "Feature",
      "geometry": {
        "type": "Point",
        "coordinates": [
          -67.569275,
          -9.84618
        ]
      },
      "properties": {
        "row": 148,
        "col": 309,
        "kind": "ring",
        "amplitude_m": 14.64,
        "diameter_m": 180.2,
        "regularity": 1.0,
        "score": 16.459
      }
    },
    {
      "type": "Feature",
      "geometry": {
        "type": "Point",
        "coordinates": [
          -67.475452,
          -9.890031
        ]
      },
      "properties": {
        "row": 278,
        "col": 583,
        "kind": "ring",
        "amplitude_m": 14.09,
        "diameter_m": 169.9,
        "regularity": 1.0,
        "score": 15.895
      }
    },
    {
      "type": "Feature",
      "geometry": {
        "type": "Point",
        "coordinates": [
          -67.610893,
          -9.883267
        ]
      },
      "properties": {
        "row": 258,
        "col": 188,
        "kind": "mound",
        "amplitude_m": 13.82,
        "diameter_m": 169.9,
        "regularity": 1.0,
        "score": 15.744
      }
    },
    {
      "type": "Feature",
      "geometry": {
        "type": "Point",
        "coordinates": [
          -67.67404,
          -10.040474
        ]
      },
      "properties": {
        "row": 723,
        "col": 4,
        "kind": "ring",
        "amplitude_m": 14.1,
        "diameter_m": 224.8,
        "regularity": 1.0,
        "score": 15.684
      }
    },
    {
      "type": "Feature",
      "geometry": {
        "type": "Point",
        "coordinates": [
          -67.578239,
          -9.969429
        ]
      },
      "properties": {
        "row": 513,
        "col": 283,
        "kind": "mound",
        "amplitude_m": 13.69,
        "diameter_m": 180.2,
        "regularity": 1.0,
        "score": 14.478
      }
    },
    {
      "type": "Feature",
      "geometry": {
        "type": "Point",
        "coordinates": [
          -67.544894,
          -9.962462
        ]
      },
      "properties": {
        "row": 492,
        "col": 380,
        "kind": "mound",
        "amplitude_m": 12.37,
        "diameter_m": 247.7,
        "regularity": 1.0,
        "score": 14.467
      }
    },
    {
      "type": "Feature",
      "geometry": {
        "type": "Point",
        "coordinates": [
          -67.478464,
          -9.847125
        ]
      },
      "properties": {
        "row": 151,
        "col": 574,
        "kind": "mound",
        "amplitude_m": 12.54,
        "diameter_m": 251.3,
        "regularity": 1.0,
        "score": 14.345
      }
    },
    {
      "type": "Feature",
      "geometry": {
        "type": "Point",
        "coordinates": [
          -67.534847,
          -9.969166
        ]
      },
      "properties": {
        "row": 512,
        "col": 410,
        "kind": "ring",
        "amplitude_m": 14.43,
        "diameter_m": 120.2,
        "regularity": 1.0,
        "score": 14.208
      }
    },
    {
      "type": "Feature",
      "geometry": {
        "type": "Point",
        "coordinates": [
          -67.653465,
          -9.946
        ]
      },
      "properties": {
        "row": 444,
        "col": 64,
        "kind": "mound",
        "amplitude_m": 11.96,
        "diameter_m": 208.1,
        "regularity": 1.0,
        "score": 14.08
      }
    },
    {
      "type": "Feature",
      "geometry": {
        "type": "Point",
        "coordinates": [
          -67.386796,
          -9.883098
        ]
      },
      "properties": {
        "row": 258,
        "col": 841,
        "kind": "mound",
        "amplitude_m": 12.11,
        "diameter_m": 265.3,
        "regularity": 1.0,
        "score": 14.078
      }
    },
    {
      "type": "Feature",
      "geometry": {
        "type": "Point",
        "coordinates": [
          -67.568813,
          -9.967936
        ]
      },
      "properties": {
        "row": 508,
        "col": 311,
        "kind": "ring",
        "amplitude_m": 12.73,
        "diameter_m": 228.8,
        "regularity": 1.0,
        "score": 14.002
      }
    },
    {
      "type": "Feature",
      "geometry": {
        "type": "Point",
        "coordinates": [
          -67.421551,
          -9.908462
        ]
      },
      "properties": {
        "row": 333,
        "col": 740,
        "kind": "mound",
        "amplitude_m": 15.05,
        "diameter_m": 95.0,
        "regularity": 1.0,
        "score": 13.92
      }
    },
    {
      "type": "Feature",
      "geometry": {
        "type": "Point",
        "coordinates": [
          -67.421646,
          -9.906902
        ]
      },
      "properties": {
        "row": 328,
        "col": 739,
        "kind": "ring",
        "amplitude_m": 12.57,
        "diameter_m": 180.2,
        "regularity": 1.0,
        "score": 13.603
      }
    },
    {
      "type": "Feature",
      "geometry": {
        "type": "Point",
        "coordinates": [
          -67.418027,
          -9.89837
        ]
      },
      "properties": {
        "row": 303,
        "col": 750,
        "kind": "ring",
        "amplitude_m": 13.32,
        "diameter_m": 185.2,
        "regularity": 1.0,
        "score": 13.571
      }
    },
    {
      "type": "Feature",
      "geometry": {
        "type": "Point",
        "coordinates": [
          -67.50739,
          -9.823508
        ]
      },
      "properties": {
        "row": 81,
        "col": 489,
        "kind": "mound",
        "amplitude_m": 12.04,
        "diameter_m": 265.3,
        "regularity": 1.0,
        "score": 13.395
      }
    },
    {
      "type": "Feature",
      "geometry": {
        "type": "Point",
        "coordinates": [
          -67.509613,
          -10.011439
        ]
      },
      "properties": {
        "row": 637,
        "col": 483,
        "kind": "mound",
        "amplitude_m": 12.73,
        "diameter_m": 147.2,
        "regularity": 1.0,
        "score": 13.386
      }
    },
    {
      "type": "Feature",
      "geometry": {
        "type": "Point",
        "coordinates": [
          -67.55975,
          -9.954072
        ]
      },
      "properties": {
        "row": 467,
        "col": 337,
        "kind": "ring",
        "amplitude_m": 12.75,
        "diameter_m": 164.5,
        "regularity": 1.0,
        "score": 13.271
      }
    },
    {
      "type": "Feature",
      "geometry": {
        "type": "Point",
        "coordinates": [
          -67.566776,
          -9.961388
        ]
      },
      "properties": {
        "row": 489,
        "col": 317,
        "kind": "ring",
        "amplitude_m": 13.9,
        "diameter_m": 120.2,
        "regularity": 1.0,
        "score": 13.216
      }
    },
    {
      "type": "Feature",
      "geometry": {
        "type": "Point",
        "coordinates": [
          -67.359924,
          -9.81038
        ]
      },
      "properties": {
        "row": 42,
        "col": 919,
        "kind": "mound",
        "amplitude_m": 11.53,
        "diameter_m": 268.7,
        "regularity": 1.0,
        "score": 13.033
      }
    },
    {
      "type": "Feature",
      "geometry": {
        "type": "Point",
        "coordinates": [
          -67.533439,
          -9.993251
        ]
      },
      "properties": {
        "row": 583,
        "col": 414,
        "kind": "ring",
        "amplitude_m": 12.24,
        "diameter_m": 265.3,
        "regularity": 1.0,
        "score": 13.011
      }
    },
    {
      "type": "Feature",
      "geometry": {
        "type": "Point",
        "coordinates": [
          -67.405494,
          -9.821289
        ]
      },
      "properties": {
        "row": 75,
        "col": 786,
        "kind": "mound",
        "amplitude_m": 12.62,
        "diameter_m": 153.2,
        "regularity": 1.0,
        "score": 13.006
      }
    },
    {
      "type": "Feature",
      "geometry": {
        "type": "Point",
        "coordinates": [
          -67.43618,
          -9.911934
        ]
      },
      "properties": {
        "row": 343,
        "col": 697,
        "kind": "mound",
        "amplitude_m": 12.66,
        "diameter_m": 272.0,
        "regularity": 1.0,
        "score": 12.979
      }
    },
    {
      "type": "Feature",
      "geometry": {
        "type": "Point",
        "coordinates": [
          -67.636299,
          -9.973224
        ]
      },
      "properties": {
        "row": 524,
        "col": 114,
        "kind": "ring",
        "amplitude_m": 13.1,
        "diameter_m": 169.9,
        "regularity": 1.0,
        "score": 12.894
      }
    },
    {
      "type": "Feature",
      "geometry": {
        "type": "Point",
        "coordinates": [
          -67.612922,
          -9.889447
        ]
      },
      "properties": {
        "row": 276,
        "col": 182,
        "kind": "mound",
        "amplitude_m": 12.58,
        "diameter_m": 199.2,
        "regularity": 1.0,
        "score": 12.884
      }
    },
    {
      "type": "Feature",
      "geometry": {
        "type": "Point",
        "coordinates": [
          -67.586517,
          -9.845052
        ]
      },
      "properties": {
        "row": 145,
        "col": 259,
        "kind": "mound",
        "amplitude_m": 12.58,
        "diameter_m": 120.2,
        "regularity": 1.0,
        "score": 12.856
      }
    },
    {
      "type": "Feature",
      "geometry": {
        "type": "Point",
        "coordinates": [
          -67.527302,
          -9.814579
        ]
      },
      "properties": {
        "row": 55,
        "col": 431,
        "kind": "ring",
        "amplitude_m": 12.93,
        "diameter_m": 288.1,
        "regularity": 1.0,
        "score": 12.773
      }
    },
    {
      "type": "Feature",
      "geometry": {
        "type": "Point",
        "coordinates": [
          -67.364532,
          -10.053053
        ]
      },
      "properties": {
        "row": 760,
        "col": 906,
        "kind": "mound",
        "amplitude_m": 11.69,
        "diameter_m": 261.9,
        "regularity": 1.0,
        "score": 12.769
      }
    },
    {
      "type": "Feature",
      "geometry": {
        "type": "Point",
        "coordinates": [
          -67.536498,
          -10.005472
        ]
      },
      "properties": {
        "row": 619,
        "col": 405,
        "kind": "mound",
        "amplitude_m": 11.81,
        "diameter_m": 337.2,
        "regularity": 1.0,
        "score": 12.712
      }
    },
    {
      "type": "Feature",
      "geometry": {
        "type": "Point",
        "coordinates": [
          -67.349453,
          -10.051852
        ]
      },
      "properties": {
        "row": 757,
        "col": 950,
        "kind": "ring",
        "amplitude_m": 13.3,
        "diameter_m": 95.0,
        "regularity": 1.0,
        "score": 12.624
      }
    },
    {
      "type": "Feature",
      "geometry": {
        "type": "Point",
        "coordinates": [
          -67.546005,
          -9.988273
        ]
      },
      "properties": {
        "row": 569,
        "col": 377,
        "kind": "mound",
        "amplitude_m": 13.58,
        "diameter_m": 120.2,
        "regularity": 1.0,
        "score": 12.61
      }
    },
    {
      "type": "Feature",
      "geometry": {
        "type": "Point",
        "coordinates": [
          -67.463093,
          -9.886987
        ]
      },
      "properties": {
        "row": 269,
        "col": 619,
        "kind": "ring",
        "amplitude_m": 13.28,
        "diameter_m": 120.2,
        "regularity": 1.0,
        "score": 12.595
      }
    },
    {
      "type": "Feature",
      "geometry": {
        "type": "Point",
        "coordinates": [
          -67.594291,
          -10.016753
        ]
      },
      "properties": {
        "row": 653,
        "col": 236,
        "kind": "ring",
        "amplitude_m": 11.64,
        "diameter_m": 224.8,
        "regularity": 1.0,
        "score": 12.587
      }
    },
    {
      "type": "Feature",
      "geometry": {
        "type": "Point",
        "coordinates": [
          -67.466328,
          -9.863619
        ]
      },
      "properties": {
        "row": 200,
        "col": 609,
        "kind": "mound",
        "amplitude_m": 11.99,
        "diameter_m": 285.0,
        "regularity": 1.0,
        "score": 12.547
      }
    },
    {
      "type": "Feature",
      "geometry": {
        "type": "Point",
        "coordinates": [
          -67.370694,
          -9.875761
        ]
      },
      "properties": {
        "row": 236,
        "col": 888,
        "kind": "mound",
        "amplitude_m": 11.53,
        "diameter_m": 203.7,
        "regularity": 1.0,
        "score": 12.529
      }
    },
    {
      "type": "Feature",
      "geometry": {
        "type": "Point",
        "coordinates": [
          -67.342415,
          -10.050499
        ]
      },
      "properties": {
        "row": 753,
        "col": 970,
        "kind": "ring",
        "amplitude_m": 13.36,
        "diameter_m": 120.2,
        "regularity": 1.0,
        "score": 12.495
      }
    },
    {
      "type": "Feature",
      "geometry": {
        "type": "Point",
        "coordinates": [
          -67.377262,
          -9.882084
        ]
      },
      "properties": {
        "row": 255,
        "col": 869,
        "kind": "mound",
        "amplitude_m": 13.99,
        "diameter_m": 95.0,
        "regularity": 1.0,
        "score": 12.465
      }
    },
    {
      "type": "Feature",
      "geometry": {
        "type": "Point",
        "coordinates": [
          -67.400951,
          -9.830571
        ]
      },
      "properties": {
        "row": 102,
        "col": 800,
        "kind": "ring",
        "amplitude_m": 11.34,
        "diameter_m": 212.4,
        "regularity": 1.0,
        "score": 12.442
      }
    },
    {
      "type": "Feature",
      "geometry": {
        "type": "Point",
        "coordinates": [
          -67.508926,
          -9.988273
        ]
      },
      "properties": {
        "row": 569,
        "col": 485,
        "kind": "ring",
        "amplitude_m": 12.69,
        "diameter_m": 120.2,
        "regularity": 1.0,
        "score": 12.434
      }
    },
    {
      "type": "Feature",
      "geometry": {
        "type": "Point",
        "coordinates": [
          -67.448244,
          -9.925442
        ]
      },
      "properties": {
        "row": 383,
        "col": 662,
        "kind": "ring",
        "amplitude_m": 12.98,
        "diameter_m": 208.1,
        "regularity": 1.0,
        "score": 12.402
      }
    }
  ]
}